HAWK-6B                 
1 55324U 23011A   26197.16540258  .00002490  00000+0  11131-3 0  9996
2 55324  40.4971 183.0180 0004302 245.3906 114.6455 15.23158930192268
HAWK-6C                 
1 55326U 23011C   26197.16477071  .00002157  00000+0  97530-4 0  9998
2 55326  40.4963 179.8576 0004824 238.9625 121.0711 15.23159401192270
HAWK-6A                 
1 55327U 23011D   26197.16480830  .00002281  00000+0  10268-3 0  9996
2 55327  40.4972 181.4843 0004405 236.1532 123.8859 15.23159174192279
HAWK-7A                 
1 56191U 23054P   26197.13059942  .00003053  00000+0  11567-3 0  9997
2 56191  97.2660  83.7321 0001304 327.9146  32.2014 15.27638422181448
HAWK-7B                 
1 56193U 23054R   26196.73751395  .00003190  00000+0  12078-3 0  9995
2 56193  97.2688  81.6230 0001249  15.9411 344.1868 15.27634662181380
HAWK-7C                 
1 56200U 23054Y   26197.13040670  .00003014  00000+0  11423-3 0  9994
2 56200  97.2662  82.7660 0000820 351.2492   8.8733 15.27639389181442
