OBJECT_NAME,OBJECT_ID,EPOCH,MEAN_MOTION,ECCENTRICITY,INCLINATION,RA_OF_ASC_NODE,ARG_OF_PERICENTER,MEAN_ANOMALY,EPHEMERIS_TYPE,CLASSIFICATION_TYPE,NORAD_CAT_ID,ELEMENT_SET_NO,REV_AT_EPOCH,BSTAR,MEAN_MOTION_DOT,MEAN_MOTION_DDOT
HAWK-6B,2023-011A,2026-07-16T03:58:10.782912,15.23158930,.0004302,40.4971,183.0180,245.3906,114.6455,0,U,55324,999,19226,.11131E-3,.249E-4,0
HAWK-6C,2023-011C,2026-07-16T03:57:16.189344,15.23159401,.0004824,40.4963,179.8576,238.9625,121.0711,0,U,55326,999,19227,.9753E-4,.2157E-4,0
HAWK-6A,2023-011D,2026-07-16T03:57:19.437120,15.23159174,.0004405,40.4972,181.4843,236.1532,123.8859,0,U,55327,999,19227,.10268E-3,.2281E-4,0
HAWK-7A,2023-054P,2026-07-16T03:08:03.789888,15.27638422,.0001304,97.2660,83.7321,327.9146,32.2014,0,U,56191,999,18144,.11567E-3,.3053E-4,0
HAWK-7B,2023-054R,2026-07-15T17:42:01.205280,15.27634662,.00012492,97.2688,81.6230,15.9411,344.1868,0,U,56193,999,18138,.1207816E-3,.319E-4,0
HAWK-7C,2023-054Y,2026-07-16T03:07:47.138880,15.27639389,.000082,97.2662,82.7660,351.2492,8.8733,0,U,56200,999,18144,.11423E-3,.3014E-4,0
